NORAD_CAT_ID,OBJECT_NAME,OBJECT_TYPE,EPOCH,MEAN_MOTION,ECCENTRICITY,INCLINATION,RA_OF_ASC_NODE,ARG_OF_PERICENTER,MEAN_ANOMALY,BSTAR,MEAN_MOTION_DOT,MEAN_MOTION_DDOT,TLE_LINE0,TLE_LINE1,TLE_LINE2,SEMIMAJOR_AXIS,PERIOD,APOGEE,PERIGEE,DECAYED
55915.0,STARLINK-5859,PAYLOAD,2023-04-04 14:00:01,15.6990891,0.0003739,69.9981,130.997,272.3579,186.948,0.00017261,0.00020581,0.0,0 STARLINK-5859,1 55915U 23037B   23094.58334491  .00020581  00000-0  17261-3 0  9991,2 55915  69.9981 130.9970 0003739 272.3579 186.9480 15.69908910  3327,6737.295,91.725,361.679,356.641,0.0
55915.0,STARLINK-5859,PAYLOAD,2023-04-04 22:00:00,15.69877062,0.0003742,69.9987,130.0597,265.6845,276.9516,0.0008914,0.00108158,0.0,0 STARLINK-5859,1 55915U 23037B   23094.91667824  .00108158  00000-0  89140-3 0  9999,2 55915  69.9987 130.0597 0003742 265.6845 276.9516 15.69877062  1303,6737.386,91.727,361.772,356.73,0.0
55915.0,STARLINK-5859,PAYLOAD,2023-04-05 06:00:00,15.69948393,0.0003617,69.9989,129.1225,268.5781,357.3819,-0.00055836,-0.0006689,0.0,0 STARLINK-5859,1 55915U 23037B   23095.25001157 -.00066890  00000-0 -55836-3 0  9991,2 55915  69.9989 129.1225 0003617 268.5781 357.3819 15.69948393  3436,6737.182,91.723,361.483,356.61,0.0
55915.0,STARLINK-5859,PAYLOAD,2023-04-05 14:00:01,15.69927212,0.0003528,69.9986,128.1852,275.177,74.1296,1.0887e-05,1.097e-05,0.0,0 STARLINK-5859,1 55915U 23037B   23095.58334491  .00001097  00000-0  10887-4 0  9991,2 55915  69.9986 128.1852 0003528 275.1770  74.1296 15.69927212  1305,6737.242,91.724,361.484,356.73,0.0
55915.0,STARLINK-5859,PAYLOAD,2023-04-05 16:00:00,15.69964899,0.0003434,69.9987,127.9508,274.0433,186.0884,-0.00071341,-0.00085275,0.0,0 STARLINK-5859,1 55915U 23037B   23095.66667824 -.00085275  00000-0 -71341-3 0  9992,2 55915  69.9987 127.9508 0003434 274.0433 186.0884 15.69964899  3491,6737.134,91.722,361.313,356.686,0.0
55915.0,STARLINK-5859,PAYLOAD,2023-04-05 22:00:00,15.6985789,0.0003442,69.9987,127.2479,266.8935,165.7732,0.0010052,0.00122094,0.0,0 STARLINK-5859,1 55915U 23037B   23095.91667824  .00122094  00000-0  10052-2 0  9990,2 55915  69.9987 127.2479 0003442 266.8935 165.7732 15.69857890  1302,6737.441,91.728,361.625,356.987,0.0
55915.0,STARLINK-5859,PAYLOAD,2023-04-06 10:00:00,15.69877496,0.0003431,69.9992,125.8421,275.3045,102.347,0.0005503,0.00066354,0.0,0 STARLINK-5859,1 55915U 23037B   23096.41667824  .00066354  00000-0  55030-3 0  9998,2 55915  69.9992 125.8421 0003431 275.3045 102.3470 15.69877496  3610,6737.384,91.727,361.561,356.938,0.0
55915.0,STARLINK-5859,PAYLOAD,2023-04-06 14:00:01,15.69932266,0.0003477,69.9988,125.3733,275.0862,324.282,-5.7913e-05,-7.173e-05,0.0,0 STARLINK-5859,1 55915U 23037B   23096.58335648 -.00007173  00000-0 -57913-4 0  9991,2 55915  69.9988 125.3733 0003477 275.0862 324.2820 15.69932266  1305,6737.228,91.724,361.435,356.75,0.0
55915.0,STARLINK-5859,PAYLOAD,2023-04-06 22:00:00,15.6989717,0.0003416,69.9989,124.4362,269.2053,53.4553,0.00042808,0.0005152,0.0,0 STARLINK-5859,1 55915U 23037B   23096.91667824  .00051520  00000-0  42808-3 0  9991,2 55915  69.9989 124.4362 0003416 269.2053  53.4553 15.69897170  1302,6737.328,91.726,361.495,356.892,0.0
55915.0,STARLINK-5859,PAYLOAD,2023-04-07 08:00:01,15.69908687,0.0003348,69.9988,123.2647,274.1904,242.6412,9.5906e-05,0.00011327,0.0,0 STARLINK-5859,1 55915U 23037B   23097.33334491  .00011327  00000-0  95906-4 0  9998,2 55915  69.9988 123.2647 0003348 274.1904 242.6412 15.69908687  3751,6737.295,91.725,361.416,356.905,0.0
55915.0,STARLINK-5859,PAYLOAD,2023-04-07 14:00:01,15.69969342,0.0003291,69.9986,122.5617,275.1395,214.1597,-0.00054756,-0.00065662,0.0,0 STARLINK-5859,1 55915U 23037B   23097.58334491 -.00065662  00000-0 -54756-3 0  9995,2 55915  69.9986 122.5617 0003291 275.1395 214.1597 15.69969342  1302,6737.122,91.722,361.204,356.77,0.0
55915.0,STARLINK-5859,PAYLOAD,2023-04-08 04:44:36,15.69915047,0.000423,69.9985,120.8349,279.1131,80.9586,8.0261e-06,7.52e-06,0.0,0 STARLINK-5859,1 55915U 23037B   23098.19764263  .00000752  00000-0  80261-5 0  9996,2 55915  69.9985 120.8349 0004230 279.1131  80.9586 15.69915047  3896,6737.277,91.725,361.992,356.292,0.0
55915.0,STARLINK-5859,PAYLOAD,2023-04-08 10:51:36,15.69930365,0.0003482,69.9986,120.118,270.5425,89.5372,5.1327e-05,5.965e-05,0.0,0 STARLINK-5859,1 55915U 23037B   23098.45250654  .00005965  00000-0  51327-4 0  9990,2 55915  69.9986 120.1180 0003482 270.5425  89.5372 15.69930365  3935,6737.233,91.724,361.444,356.752,0.0
55915.0,STARLINK-5859,PAYLOAD,2023-04-08 18:30:23,15.69903328,0.0002385,69.9985,119.2228,279.1862,80.9064,-5.537e-05,-6.858e-05,0.0,0 STARLINK-5859,1 55915U 23037B   23098.77110004 -.00006858  00000-0 -55370-4 0  9995,2 55915  69.9985 119.2228 0002385 279.1862  80.9064 15.69903328  3984,6737.311,91.725,360.782,357.569,0.0
55915.0,STARLINK-5859,PAYLOAD,2023-04-09 09:47:54,15.69928301,0.0002746,70.0,117.4324,268.3949,91.6932,0.00012264,0.00014561,0.0,0 STARLINK-5859,1 55915U 23037B   23099.40826724  .00014561  00000-0  12264-3 0  9991,2 55915  70.0000 117.4324 0002746 268.3949  91.6932 15.69928301  4082,6737.239,91.724,360.954,357.254,0.0
55915.0,STARLINK-5859,PAYLOAD,2023-04-09 12:51:24,15.69940882,0.0002729,70.0001,117.0744,270.7559,89.3324,0.00028571,0.00034303,0.0,0 STARLINK-5859,1 55915U 23037B   23099.53570005  .00034303  00000-0  28571-3 0  9997,2 55915  70.0001 117.0744 0002729 270.7559  89.3324 15.69940882  4100,6737.203,91.723,360.907,357.23,0.0
55915.0,STARLINK-5859,PAYLOAD,2023-04-10 04:08:54,15.69946904,0.0003603,69.999,115.2825,267.2214,92.857,9.2565e-05,0.00010943,0.0,0 STARLINK-5859,1 55915U 23037B   23100.17285693  .00010943  00000-0  92565-4 0  9995,2 55915  69.9990 115.2825 0003603 267.2214  92.8570 15.69946904  4209,6737.186,91.723,361.478,356.623,0.0
55915.0,STARLINK-5859,PAYLOAD,2023-04-10 13:19:25,15.69942414,0.0004025,69.9998,114.2084,276.2457,83.8281,2.7523e-05,3.1e-05,0.0,0 STARLINK-5859,1 55915U 23037B   23100.55515455  .00003100  00000-0  27523-4 0  9998,2 55915  69.9998 114.2084 0004025 276.2457  83.8281 15.69942414  4268,6737.199,91.723,361.775,356.352,0.0
55915.0,STARLINK-5859,PAYLOAD,2023-04-11 12:15:52,15.6979845,0.0002306,69.9985,111.5231,279.3896,80.7039,-0.00013558,-0.00016395,0.0,0 STARLINK-5859,1 55915U 23037B   23101.51102425 -.00016395  00000-0 -13558-3 0  9998,2 55915  69.9985 111.5231 0002306 279.3896  80.7039 15.69798450  4412,6737.611,91.732,361.029,357.922,0.0
55915.0,STARLINK-5859,PAYLOAD,2023-04-11 18:22:50,15.69791917,0.0002249,70.0005,110.8043,294.9764,65.1198,-0.00026096,-0.00031297,0.0,0 STARLINK-5859,1 55915U 23037B   23101.76586796 -.00031297  00000-0 -26096-3 0  9991,2 55915  70.0005 110.8043 0002249 294.9764  65.1198 15.69791917  4452,6737.629,91.732,361.01,357.979,0.0
55915.0,STARLINK-5859,PAYLOAD,2023-04-12 06:36:08,15.7046303,0.0007667,69.9992,109.371,227.7212,132.3334,0.00057277,0.000709,0.0,0 STARLINK-5859,1 55915U 23037B   23102.27510353  .00070900  00000-0  57277-3 0  9991,2 55915  69.9992 109.3710 0007667 227.7212 132.3334 15.70463030  4531,6735.71,91.693,362.739,352.41,0.0
55915.0,STARLINK-5859,PAYLOAD,2023-04-12 22:00:01,15.66820013,0.0003535,69.9998,107.577,266.5555,107.3814,-0.0091102,-0.00869912,0.0,0 STARLINK-5859,1 55915U 23037B   23102.91668981 -.00869912  00000-0 -91102-2 0  9998,2 55915  69.9998 107.5770 0003535 266.5555 107.3814 15.66820013  4633,6746.146,91.906,370.396,365.627,0.0
55915.0,STARLINK-5859,PAYLOAD,2023-04-13 12:00:00,15.6569676,0.0003584,69.9993,105.9458,274.1243,147.8861,-0.0099783,-0.00920389,0.0,0 STARLINK-5859,1 55915U 23037B   23103.50001157 -.00920389  00000-0 -99783-2 0  9999,2 55915  69.9993 105.9458 0003584 274.1243 147.8861 15.65696760  1307,6749.373,91.972,373.657,368.819,0.0
55915.0,STARLINK-5859,PAYLOAD,2023-04-14 14:00:01,15.63597681,0.0003663,69.9993,102.9235,273.7094,128.549,-0.011371,-0.00960649,0.0,0 STARLINK-5859,1 55915U 23037B   23104.58335648 -.00960649  00000-0 -11371-1 0  9992,2 55915  69.9993 102.9235 0003663 273.7094 128.5490 15.63597681  1308,6755.412,92.095,379.751,374.802,0.0
55915.0,STARLINK-5859,PAYLOAD,2023-04-15 08:00:01,15.62073305,0.0003601,69.9991,100.8372,273.0887,27.4884,-0.010735,-0.00863015,0.0,0 STARLINK-5859,1 55915U 23037B   23105.33334491 -.00863015  00000-0 -10735-1 0  9993,2 55915  69.9991 100.8372 0003601 273.0887  27.4884 15.62073305  5017,6759.806,92.185,384.105,379.237,0.0
55915.0,STARLINK-5859,PAYLOAD,2023-04-15 14:00:01,15.61642429,0.0003451,69.9987,100.1424,270.4633,355.3409,-0.012363,-0.00966685,0.0,0 STARLINK-5859,1 55915U 23037B   23105.58334491 -.00966685  00000-0 -12363-1 0  9996,2 55915  69.9987 100.1424 0003451 270.4633 355.3409 15.61642429  1308,6761.049,92.211,385.248,380.581,0.0
55915.0,STARLINK-5859,PAYLOAD,2023-04-15 22:00:01,15.6096363,0.0003531,69.9989,99.2172,265.4965,73.3486,-0.011816,-0.00905767,0.0,0 STARLINK-5859,1 55915U 23037B   23105.91668981 -.00905767  00000-0 -11816-1 0  9993,2 55915  69.9989  99.2172 0003531 265.4965  73.3486 15.60963630  1300,6763.009,92.251,387.262,382.486,0.0
55915.0,STARLINK-5859,PAYLOAD,2023-04-16 10:00:00,15.59971342,0.0003413,69.999,97.8307,272.716,354.0618,-0.012002,-0.00887238,0.0,0 STARLINK-5859,1 55915U 23037B   23106.41667824 -.00887238  00000-0 -12002-1 0  9994,2 55915  69.9990  97.8307 0003413 272.7160 354.0618 15.59971342  1306,6765.877,92.309,390.051,385.433,0.0
55915.0,STARLINK-5859,PAYLOAD,2023-04-16 22:00:00,15.59014694,0.0003234,69.9987,96.4466,264.6966,288.3038,-0.012923,-0.00917982,0.0,0 STARLINK-5859,1 55915U 23037B   23106.91667824 -.00917982  00000-0 -12923-1 0  9991,2 55915  69.9987  96.4466 0003234 264.6966 288.3038 15.59014694  1301,6768.644,92.366,392.698,388.32,0.0
55915.0,STARLINK-5859,PAYLOAD,2023-04-17 06:00:00,15.58316861,0.0003259,69.9985,95.5249,270.0563,352.8083,-0.01236,-0.0086031,0.0,0 STARLINK-5859,1 55915U 23037B   23107.25001157 -.00860310  00000-0 -12360-1 0  9997,2 55915  69.9985  95.5249 0003259 270.0563 352.8083 15.58316861  5311,6770.665,92.407,394.737,390.323,0.0
